[{"OBJECT_NAME":"EZIE-B","OBJECT_ID":"2025-052AS","EPOCH":"2026-03-09T23:09:37.705536","MEAN_MOTION":14.96286279,"ECCENTRICITY":0.00040038,"INCLINATION":97.7009,"RA_OF_ASC_NODE":322.7783,"ARG_OF_PERICENTER":146.8572,"MEAN_ANOMALY":213.2901,"EPHEMERIS_TYPE":0,"CLASSIFICATION_TYPE":"U","NORAD_CAT_ID":63250,"ELEMENT_SET_NO":999,"REV_AT_EPOCH":5382,"BSTAR":0.00063815223,"MEAN_MOTION_DOT":7.158e-5,"MEAN_MOTION_DDOT":0},{"OBJECT_NAME":"STARLINK-33790","OBJECT_ID":"2025-102H","EPOCH":"2026-03-09T12:16:56.197056","MEAN_MOTION":14.98323551,"ECCENTRICITY":0.00028476,"INCLINATION":70.0019,"RA_OF_ASC_NODE":114.9764,"ARG_OF_PERICENTER":259.5585,"MEAN_ANOMALY":100.5253,"EPHEMERIS_TYPE":0,"CLASSIFICATION_TYPE":"U","NORAD_CAT_ID":64029,"ELEMENT_SET_NO":999,"REV_AT_EPOCH":4597,"BSTAR":0.00030189181,"MEAN_MOTION_DOT":3.51e-5,"MEAN_MOTION_DDOT":0}]
